{"spkid": "50836904", "covariance": {"epoch": "2459000.5", "elements": [{"name": "e", "sigma": 2.15440319810024e-07, "title": "eccentricity", "value": ".4014349265841882", "units": null, "label": "e"}, {"label": "q", "sigma": 3.41015784329002e-07, "name": "q", "units": "au", "value": ".9487866812547094", "title": "perihelion distance"}, {"sigma": 6.90131790419675e-05, "name": "tp", "value": "2459230.026072399848", "title": "time of perihelion passage", "units": "TDB", "label": "tp"}, {"label": "node", "units": "deg", "value": "75.4674913890405", "title": "longitude of the ascending node", "sigma": 1.02925870041954e-05, "name": "om"}, {"label": "peri", "sigma": 9.50979513644968e-05, "name": "w", "units": "deg", "value": "44.82002206588917", "title": "argument of perihelion"}, {"label": "i", "sigma": 3.83949114038322e-05, "name": "i", "title": "inclination", "value": "13.24829427053542", "units": "deg"}], "data": [["4.641453139984559E-14", "-7.346591040820742E-14", "1.400261140832862E-11", "2.158057404483596E-13", "1.952719193626584E-11", "1.453490711994543E-12"], ["-7.346591040820742E-14", "1.162917651615247E-13", "-2.219471191878314E-11", "-3.298718707631948E-13", "-3.095023080426468E-11", "-2.337164364359008E-12"], ["1.400261140832862E-11", "-2.219471191878314E-11", "4.762818881478659E-9", "-7.341775543450445E-11", "6.531618423421822E-9", "1.080924675304967E-9"], ["2.158057404483596E-13", "-3.298718707631948E-13", "-7.341775543450445E-11", "1.059373472389311E-10", "-1.399332529526382E-10", "-1.772403584782233E-10"], ["1.952719193626584E-11", "-3.095023080426468E-11", "6.531618423421822E-9", "-1.399332529526382E-10", "9.043620353724191E-9", "1.386838763353719E-9"], ["1.453490711994543E-12", "-2.337164364359008E-12", "1.080924675304967E-9", "-1.772403584782233E-10", "1.386838763353719E-9", "1.474169221708126E-9"]], "labels": ["e", "q", "tp", "node", "peri", "i"]}, "elements": [{"label": "e", "title": "eccentricity", "value": ".401190747715736", "units": null, "sigma": "2.1729E-7", "name": "e"}, {"title": "semi-major axis", "value": "1.584191394923009", "units": "au", "sigma": "1.6821E-8", "name": "a", "label": "a"}, {"name": "q", "sigma": "3.3989E-7", "title": "perihelion distance", "value": ".9486284646690121", "units": "au", "label": "q"}, {"units": "deg", "value": "13.21134097326419", "title": "inclination; angle with respect to x-y ecliptic plane", "sigma": "3.8525E-5", "name": "i", "label": "i"}, {"label": "node", "name": "om", "sigma": "1.0103E-5", "units": "deg", "title": "longitude of the ascending node", "value": "75.34365725188745"}, {"name": "w", "sigma": "9.4414E-5", "title": "argument of perihelion", "value": "45.08033994352585", "units": "deg", "label": "peri"}, {"units": "deg", "title": "mean anomaly", "value": "252.933910391393", "sigma": "3.8664E-5", "name": "ma", "label": "M"}, {"sigma": "8.0589E-5", "name": "tp", "title": "time of perihelion passage", "value": "2461417.100443822448", "units": "TDB", "label": "tp"}, {"sigma": "1.16E-5", "name": "per", "value": "728.2993155081349", "title": "sidereal orbital period", "units": "d", "label": "period"}, {"value": ".4943022632787012", "title": "mean motion", "units": "deg/d", "sigma": "7.8729E-9", "name": "n", "label": "n"}, {"label": "Q", "sigma": "2.357E-8", "name": "ad", "units": "au", "value": "2.219754325177005", "title": "aphelion distance"}], "epoch": "2461200.5"}